ORBCOMM FM103           
1 40091U 14040F   24155.29835418  .00001112  00000+0  28410-3 0  9992
2 40091  47.0069   5.1446 0002002 323.9356  36.1394 14.56656438508835
ORBCOMM FM114           
1 41179U 15081A   24155.60544738  .00001562  00000+0  38326-3 0  9999
2 41179  47.0028 272.9643 0000800  10.3708 349.7194 14.56718247449240
ORBCOMM FM119           
1 41180U 15081B   24155.50802865  .00000838  00000+0  22326-3 0  9996
2 41180  46.9992 182.6195 0000361 143.3029 216.7881 14.56640200450481
ORBCOMM FM105           
1 41181U 15081C   24155.40977538  .00000407  00000+0  16224-3 0  9998
2 41181  47.0000 152.1873 0001228  34.3529 325.7430 14.44417693445970
ORBCOMM FM110           
1 41182U 15081D   24155.58281058  .00001631  00000+0  39871-3 0  9996
2 41182  47.0018 272.4790 0002762 237.7857 122.2761 14.56712772449117
ORBCOMM FM118           
1 41183U 15081E   24155.62896720  .00001658  00000+0  40487-3 0  9994
2 41183  47.0041 272.5748 0002791 235.6256 124.4366 14.56701775449228
