<?xml version="1.0" encoding="UTF-8"?>
<ndm xmlns:xsi="http://www.w3.org/2001/XMLSchema-instance" xsi:noNamespaceSchemaLocation="https://sanaregistry.org/r/ndmxml_unqualified/ndmxml-2.0.0-master-2.0.xsd">
<omm id="CCSDS_OMM_VERS" version="2.0">
<header><CREATION_DATE/><ORIGINATOR/></header><body><segment><metadata><OBJECT_NAME>ORBCOMM FM103</OBJECT_NAME><OBJECT_ID>2014-040F</OBJECT_ID><CENTER_NAME>EARTH</CENTER_NAME><REF_FRAME>TEME</REF_FRAME><TIME_SYSTEM>UTC</TIME_SYSTEM><MEAN_ELEMENT_THEORY>SGP4</MEAN_ELEMENT_THEORY></metadata><data><meanElements><EPOCH>2024-06-03T07:09:37.801152</EPOCH><MEAN_MOTION>14.56656438</MEAN_MOTION><ECCENTRICITY>.0002002</ECCENTRICITY><INCLINATION>47.0069</INCLINATION><RA_OF_ASC_NODE>5.1446</RA_OF_ASC_NODE><ARG_OF_PERICENTER>323.9356</ARG_OF_PERICENTER><MEAN_ANOMALY>36.1394</MEAN_ANOMALY></meanElements><tleParameters><EPHEMERIS_TYPE>0</EPHEMERIS_TYPE><CLASSIFICATION_TYPE>U</CLASSIFICATION_TYPE><NORAD_CAT_ID>40091</NORAD_CAT_ID><ELEMENT_SET_NO>999</ELEMENT_SET_NO><REV_AT_EPOCH>50883</REV_AT_EPOCH><BSTAR>.2841E-3</BSTAR><MEAN_MOTION_DOT>.1112E-4</MEAN_MOTION_DOT><MEAN_MOTION_DDOT>0</MEAN_MOTION_DDOT></tleParameters></data></segment></body></omm>
<omm id="CCSDS_OMM_VERS" version="2.0">
<header><CREATION_DATE/><ORIGINATOR/></header><body><segment><metadata><OBJECT_NAME>ORBCOMM FM114</OBJECT_NAME><OBJECT_ID>2015-081A</OBJECT_ID><CENTER_NAME>EARTH</CENTER_NAME><REF_FRAME>TEME</REF_FRAME><TIME_SYSTEM>UTC</TIME_SYSTEM><MEAN_ELEMENT_THEORY>SGP4</MEAN_ELEMENT_THEORY></metadata><data><meanElements><EPOCH>2024-06-03T14:31:50.653632</EPOCH><MEAN_MOTION>14.56718247</MEAN_MOTION><ECCENTRICITY>.00008</ECCENTRICITY><INCLINATION>47.0028</INCLINATION><RA_OF_ASC_NODE>272.9643</RA_OF_ASC_NODE><ARG_OF_PERICENTER>10.3708</ARG_OF_PERICENTER><MEAN_ANOMALY>349.7194</MEAN_ANOMALY></meanElements><tleParameters><EPHEMERIS_TYPE>0</EPHEMERIS_TYPE><CLASSIFICATION_TYPE>U</CLASSIFICATION_TYPE><NORAD_CAT_ID>41179</NORAD_CAT_ID><ELEMENT_SET_NO>999</ELEMENT_SET_NO><REV_AT_EPOCH>44924</REV_AT_EPOCH><BSTAR>.38326E-3</BSTAR><MEAN_MOTION_DOT>.1562E-4</MEAN_MOTION_DOT><MEAN_MOTION_DDOT>0</MEAN_MOTION_DDOT></tleParameters></data></segment></body></omm>
<omm id="CCSDS_OMM_VERS" version="2.0">
<header><CREATION_DATE/><ORIGINATOR/></header><body><segment><metadata><OBJECT_NAME>ORBCOMM FM119</OBJECT_NAME><OBJECT_ID>2015-081B</OBJECT_ID><CENTER_NAME>EARTH</CENTER_NAME><REF_FRAME>TEME</REF_FRAME><TIME_SYSTEM>UTC</TIME_SYSTEM><MEAN_ELEMENT_THEORY>SGP4</MEAN_ELEMENT_THEORY></metadata><data><meanElements><EPOCH>2024-06-03T12:11:33.675360</EPOCH><MEAN_MOTION>14.56640200</MEAN_MOTION><ECCENTRICITY>.0000361</ECCENTRICITY><INCLINATION>46.9992</INCLINATION><RA_OF_ASC_NODE>182.6195</RA_OF_ASC_NODE><ARG_OF_PERICENTER>143.3029</ARG_OF_PERICENTER><MEAN_ANOMALY>216.7881</MEAN_ANOMALY></meanElements><tleParameters><EPHEMERIS_TYPE>0</EPHEMERIS_TYPE><CLASSIFICATION_TYPE>U</CLASSIFICATION_TYPE><NORAD_CAT_ID>41180</NORAD_CAT_ID><ELEMENT_SET_NO>999</ELEMENT_SET_NO><REV_AT_EPOCH>45048</REV_AT_EPOCH><BSTAR>.22326E-3</BSTAR><MEAN_MOTION_DOT>.838E-5</MEAN_MOTION_DOT><MEAN_MOTION_DDOT>0</MEAN_MOTION_DDOT></tleParameters></data></segment></body></omm>
<omm id="CCSDS_OMM_VERS" version="2.0">
<header><CREATION_DATE/><ORIGINATOR/></header><body><segment><metadata><OBJECT_NAME>ORBCOMM FM105</OBJECT_NAME><OBJECT_ID>2015-081C</OBJECT_ID><CENTER_NAME>EARTH</CENTER_NAME><REF_FRAME>TEME</REF_FRAME><TIME_SYSTEM>UTC</TIME_SYSTEM><MEAN_ELEMENT_THEORY>SGP4</MEAN_ELEMENT_THEORY></metadata><data><meanElements><EPOCH>2024-06-03T09:50:04.592832</EPOCH><MEAN_MOTION>14.44417693</MEAN_MOTION><ECCENTRICITY>.0001228</ECCENTRICITY><INCLINATION>47.0000</INCLINATION><RA_OF_ASC_NODE>152.1873</RA_OF_ASC_NODE><ARG_OF_PERICENTER>34.3529</ARG_OF_PERICENTER><MEAN_ANOMALY>325.7430</MEAN_ANOMALY></meanElements><tleParameters><EPHEMERIS_TYPE>0</EPHEMERIS_TYPE><CLASSIFICATION_TYPE>U</CLASSIFICATION_TYPE><NORAD_CAT_ID>41181</NORAD_CAT_ID><ELEMENT_SET_NO>999</ELEMENT_SET_NO><REV_AT_EPOCH>44597</REV_AT_EPOCH><BSTAR>.16224E-3</BSTAR><MEAN_MOTION_DOT>.407E-5</MEAN_MOTION_DOT><MEAN_MOTION_DDOT>0</MEAN_MOTION_DDOT></tleParameters></data></segment></body></omm>
<omm id="CCSDS_OMM_VERS" version="2.0">
<header><CREATION_DATE/><ORIGINATOR/></header><body><segment><metadata><OBJECT_NAME>ORBCOMM FM110</OBJECT_NAME><OBJECT_ID>2015-081D</OBJECT_ID><CENTER_NAME>EARTH</CENTER_NAME><REF_FRAME>TEME</REF_FRAME><TIME_SYSTEM>UTC</TIME_SYSTEM><MEAN_ELEMENT_THEORY>SGP4</MEAN_ELEMENT_THEORY></metadata><data><meanElements><EPOCH>2024-06-03T13:59:14.834112</EPOCH><MEAN_MOTION>14.56712772</MEAN_MOTION><ECCENTRICITY>.0002762</ECCENTRICITY><INCLINATION>47.0018</INCLINATION><RA_OF_ASC_NODE>272.4790</RA_OF_ASC_NODE><ARG_OF_PERICENTER>237.7857</ARG_OF_PERICENTER><MEAN_ANOMALY>122.2761</MEAN_ANOMALY></meanElements><tleParameters><EPHEMERIS_TYPE>0</EPHEMERIS_TYPE><CLASSIFICATION_TYPE>U</CLASSIFICATION_TYPE><NORAD_CAT_ID>41182</NORAD_CAT_ID><ELEMENT_SET_NO>999</ELEMENT_SET_NO><REV_AT_EPOCH>44911</REV_AT_EPOCH><BSTAR>.39871E-3</BSTAR><MEAN_MOTION_DOT>.1631E-4</MEAN_MOTION_DOT><MEAN_MOTION_DDOT>0</MEAN_MOTION_DDOT></tleParameters></data></segment></body></omm>
<omm id="CCSDS_OMM_VERS" version="2.0">
<header><CREATION_DATE/><ORIGINATOR/></header><body><segment><metadata><OBJECT_NAME>ORBCOMM FM118</OBJECT_NAME><OBJECT_ID>2015-081E</OBJECT_ID><CENTER_NAME>EARTH</CENTER_NAME><REF_FRAME>TEME</REF_FRAME><TIME_SYSTEM>UTC</TIME_SYSTEM><MEAN_ELEMENT_THEORY>SGP4</MEAN_ELEMENT_THEORY></metadata><data><meanElements><EPOCH>2024-06-03T15:05:42.766080</EPOCH><MEAN_MOTION>14.56701775</MEAN_MOTION><ECCENTRICITY>.0002791</ECCENTRICITY><INCLINATION>47.0041</INCLINATION><RA_OF_ASC_NODE>272.5748</RA_OF_ASC_NODE><ARG_OF_PERICENTER>235.6256</ARG_OF_PERICENTER><MEAN_ANOMALY>124.4366</MEAN_ANOMALY></meanElements><tleParameters><EPHEMERIS_TYPE>0</EPHEMERIS_TYPE><CLASSIFICATION_TYPE>U</CLASSIFICATION_TYPE><NORAD_CAT_ID>41183</NORAD_CAT_ID><ELEMENT_SET_NO>999</ELEMENT_SET_NO><REV_AT_EPOCH>44922</REV_AT_EPOCH><BSTAR>.40487E-3</BSTAR><MEAN_MOTION_DOT>.1658E-4</MEAN_MOTION_DOT><MEAN_MOTION_DDOT>0</MEAN_MOTION_DDOT></tleParameters></data></segment></body></omm>

</ndm>
